NORAD_CAT_ID,OBJECT_NAME,OBJECT_TYPE,EPOCH,MEAN_MOTION,ECCENTRICITY,INCLINATION,RA_OF_ASC_NODE,ARG_OF_PERICENTER,MEAN_ANOMALY,BSTAR,MEAN_MOTION_DOT,MEAN_MOTION_DDOT,TLE_LINE0,TLE_LINE1,TLE_LINE2,SEMIMAJOR_AXIS,PERIOD,APOGEE,PERIGEE,DECAYED
53009.0,STARLINK-4277,PAYLOAD,2022-11-25 13:37:02,15.08842681,0.0001751999999999,53.2174,71.6786,46.3112,313.8026,6.1732e-05,6.95e-06,0.0,0 STARLINK-4277,1 53009U 22076Z   22329.56739543  .00000695  00000-0  61732-4 0  9997,2 53009  53.2174  71.6786 0001752  46.3112 313.8026 15.08842681 21805,6917.871999999999,95.437,540.9490000000002,538.525,0.0
53009.0,STARLINK-4277,PAYLOAD,2022-11-26 07:06:16,15.08847022,0.000182,53.218,68.4062,49.746,310.3691,0.00014469,2.016e-05,0.0,0 STARLINK-4277,1 53009U 22076Z   22330.29602906  .00002016  00000-0  14469-3 0  9994,2 53009  53.2180  68.4062 0001820  49.7460 310.3691 15.08847022 22380,6917.859,95.437,540.9830000000002,538.465,0.0
53009.0,STARLINK-4277,PAYLOAD,2022-11-26 13:27:49,15.08847234,0.0001718,53.2179,67.2167,47.5607,312.553,0.00012204,1.655e-05,0.0,0 STARLINK-4277,1 53009U 22076Z   22330.56098867  .00001655  00000-0  12204-3 0  9992,2 53009  53.2179  67.2167 0001718  47.5607 312.5530 15.08847234 21959,6917.858,95.437,540.9119999999998,538.535,0.0
53009.0,STARLINK-4277,PAYLOAD,2022-11-27 06:57:03,15.08845346,0.0001856,53.218,63.9454,45.826,314.2885,7.5451e-05,9.13e-06,0.0,0 STARLINK-4277,1 53009U 22076Z   22331.28962803  .00000913  00000-0  75451-4 0  9992,2 53009  53.2180  63.9454 0001856  45.8260 314.2885 15.08845346 22531,6917.864000000001,95.437,541.013,538.445,0.0
53009.0,STARLINK-4277,PAYLOAD,2022-11-27 13:18:37,15.08829027,0.0001756,53.2182,62.7558,44.6731,315.4402,-7.4541e-05,-1.474e-05,0.0,0 STARLINK-4277,1 53009U 22076Z   22331.55460127 -.00001474  00000-0 -74541-4 0  9998,2 53009  53.2182  62.7558 0001756  44.6731 315.4402 15.08829027 22103,6917.9140000000025,95.438,540.994,538.564,0.0
53009.0,STARLINK-4277,PAYLOAD,2022-11-27 22:50:56,15.08830744,0.0001764,53.218,60.972,44.0402,316.0731,-7.9104e-05,-1.546e-05,0.0,0 STARLINK-4277,1 53009U 22076Z   22331.95204272 -.00001546  00000-0 -79104-4 0  9999,2 53009  53.2180  60.9720 0001764  44.0402 316.0731 15.08830744 22638,6917.909000000002,95.438,540.994,538.553,0.0
53009.0,STARLINK-4277,PAYLOAD,2022-11-28 06:47:51,15.08836134,0.0001643,53.2176,59.4849,44.8151,315.2974,4.8956e-06,-2.1e-06,0.0,0 STARLINK-4277,1 53009U 22076Z   22332.28323681 -.00000210  00000-0  48956-5 0  9990,2 53009  53.2176  59.4849 0001643  44.8151 315.2974 15.08836134 22687,6917.892,95.438,540.894,538.621,0.0
53009.0,STARLINK-4277,PAYLOAD,2022-11-28 09:58:37,15.0885117,0.0001895,53.2174,58.8906,46.8527,313.2623,-0.00027042,-4.591e-05,0.0,0 STARLINK-4277,1 53009U 22076Z   22332.41571627 -.00004591  00000-0 -27042-3 0  9998,2 53009  53.2174  58.8906 0001895  46.8527 313.2623 15.08851170 22237,6917.846,95.437,541.0219999999998,538.4,0.0
53009.0,STARLINK-4277,PAYLOAD,2022-11-28 11:34:01,15.08849858,0.0001868,53.2173,58.5927,46.672,313.4428,-0.00026562,-4.514e-05,0.0,0 STARLINK-4277,1 53009U 22076Z   22332.48195604 -.00004514  00000-0 -26562-3 0  9993,2 53009  53.2173  58.5927 0001868  46.6720 313.4428 15.08849858 22717,6917.85,95.437,541.008,538.423,0.0
53009.0,STARLINK-4277,PAYLOAD,2022-11-29 13:00:11,15.08838602,0.0001928,53.2178,53.8366,36.41,323.7023,0.00024558,3.622e-05,0.0,0 STARLINK-4277,1 53009U 22076Z   22333.54179682  .00003622  00000-0  24558-3 0  9999,2 53009  53.2178  53.8366 0001928  36.4100 323.7023 15.08838602 22870,6917.885,95.438,541.0830000000002,538.4159999999998,0.0
53009.0,STARLINK-4277,PAYLOAD,2022-11-30 00:07:53,15.08841627,0.0002063,53.2174,51.7566,38.9383,321.1758,0.00018033,2.583e-05,0.0,0 STARLINK-4277,1 53009U 22076Z   22334.00547871  .00002583  00000-0  18033-3 0  9996,2 53009  53.2174  51.7566 0002063  38.9383 321.1758 15.08841627 22470,6917.875,95.437,541.168,538.313,0.0
53009.0,STARLINK-4277,PAYLOAD,2022-11-30 09:40:12,15.08840898,0.0002118,53.218,49.9746,41.9874,318.128,0.00015918,2.246e-05,0.0,0 STARLINK-4277,1 53009U 22076Z   22334.40292116  .00002246  00000-0  15918-3 0  9994,2 53009  53.2180  49.9746 0002118  41.9874 318.1280 15.08840898 23001,6917.878000000002,95.437,541.2080000000002,538.2769999999998,0.0
53009.0,STARLINK-4277,PAYLOAD,2022-12-01 12:41:45,15.08851372,0.0001939,53.2174,44.9163,39.5818,320.5315,0.00019914,2.884e-05,0.0,0 STARLINK-4277,1 53009U 22076Z   22335.52899687  .00002884  00000-0  19914-3 0  9992,2 53009  53.2174  44.9163 0001939  39.5818 320.5315 15.08851372 22704,6917.846,95.437,541.052,538.369,0.0
53009.0,STARLINK-4277,PAYLOAD,2022-12-01 17:27:55,15.08840096,0.0001837,53.2169,44.0241,40.8862,319.2267,7.0164e-05,8.29e-06,0.0,0 STARLINK-4277,1 53009U 22076Z   22335.72772140  .00000829  00000-0  70164-4 0  9990,2 53009  53.2169  44.0241 0001837  40.8862 319.2267 15.08840096 23205,6917.88,95.438,541.016,538.474,0.0
53009.0,STARLINK-4277,PAYLOAD,2022-12-02 12:32:33,15.08837503,0.0001969,53.2174,40.4558,37.5365,322.5765,-1.5749000000000004e-06,-3.13e-06,0.0,0 STARLINK-4277,1 53009U 22076Z   22336.52260513 -.00000313  00000-0 -15749-5 0  9994,2 53009  53.2174  40.4558 0001969  37.5365 322.5765 15.08837503 22858,6917.888000000001,95.438,541.115,538.391,0.0
53009.0,STARLINK-4277,PAYLOAD,2022-12-02 18:54:05,15.0884312,0.000197,53.2174,39.2663,38.1045,322.0086,9.7095e-05,1.258e-05,0.0,0 STARLINK-4277,1 53009U 22076Z   22336.78756303  .00001258  00000-0  97095-4 0  9999,2 53009  53.2174  39.2663 0001970  38.1045 322.0086 15.08843120 23365,6917.871,95.437,541.099,538.373,0.0
53009.0,STARLINK-4277,PAYLOAD,2022-12-03 12:23:20,15.08839053,0.0002033,53.2174,35.9955,39.1109,321.003,0.00018114,2.596e-05,0.0,0 STARLINK-4277,1 53009U 22076Z   22337.51620822  .00002596  00000-0  18114-3 0  9997,2 53009  53.2174  35.9955 0002033  39.1109 321.0030 15.08839053 23475,6917.8830000000025,95.438,541.155,538.342,0.0
53009.0,STARLINK-4277,PAYLOAD,2022-12-03 17:09:29,15.08842118,0.0002062,53.2174,35.1034,39.637,320.4773,0.00034095,5.143e-05,0.0,0 STARLINK-4277,1 53009U 22076Z   22337.71492825  .00005143  00000-0  34095-3 0  9996,2 53009  53.2174  35.1034 0002062  39.6370 320.4773 15.08842118 23037,6917.874,95.437,541.165,538.312,0.0
53009.0,STARLINK-4277,PAYLOAD,2022-12-04 13:49:30,15.08840316,0.0002045,53.2176,31.2378,41.6965,318.4183,0.00016511,2.341e-05,0.0,0 STARLINK-4277,1 53009U 22076Z   22338.57604943  .00002341  00000-0  16511-3 0  9997,2 53009  53.2176  31.2378 0002045  41.6965 318.4183 15.08840316 23165,6917.879,95.438,541.159,538.33,0.0
53009.0,STARLINK-4277,PAYLOAD,2022-12-04 15:24:53,15.08842215,0.0002066,53.2175,30.9405,40.0167,320.0977,0.00021366,3.114e-05,0.0,0 STARLINK-4277,1 53009U 22076Z   22338.64228881  .00003114  00000-0  21366-3 0  9991,2 53009  53.2175  30.9405 0002066  40.0167 320.0977 15.08842215 23644,6917.874,95.437,541.168,538.309,0.0
53009.0,STARLINK-4277,PAYLOAD,2022-12-05 12:04:54,15.08846619,0.0002071,53.2174,27.075,40.1421,319.9723,0.00023044,3.382e-05,0.0,0 STARLINK-4277,1 53009U 22076Z   22339.50340453  .00003382  00000-0  23044-3 0  9999,2 53009  53.2174  27.0750 0002071  40.1421 319.9723 15.08846619 23304,6917.86,95.437,541.158,538.2919999999998,0.0
53009.0,STARLINK-4277,PAYLOAD,2022-12-05 20:01:49,15.08852141,0.000209,53.2174,25.5882,39.7357,320.3787,0.0002127,3.1e-05,0.0,0 STARLINK-4277,1 53009U 22076Z   22339.83459982  .00003100  00000-0  21270-3 0  9990,2 53009  53.2174  25.5882 0002090  39.7357 320.3787 15.08852141 23826,6917.843000000003,95.437,541.154,538.262,0.0
53009.0,STARLINK-4277,PAYLOAD,2022-12-06 13:31:04,15.08836611,0.0002084,53.2173,22.3172,40.4495,319.6652,-2.2301e-05,-6.43e-06,0.0,0 STARLINK-4277,1 53009U 22076Z   22340.56324479 -.00000643  00000-0 -22301-4 0  9992,2 53009  53.2173  22.3172 0002084  40.4495 319.6652 15.08836611 23463,6917.891,95.438,541.197,538.314,0.0
53009.0,STARLINK-4277,PAYLOAD,2022-12-06 15:06:27,15.08834097,0.0002145,53.2173,22.0198,38.692,321.4225,-6.97e-05,-1.397e-05,0.0,0 STARLINK-4277,1 53009U 22076Z   22340.62948607 -.00001397  00000-0 -69700-4 0  9995,2 53009  53.2173  22.0198 0002145  38.6920 321.4225 15.08834097 23944,6917.898,95.438,541.247,538.28,0.0
53009.0,STARLINK-4277,PAYLOAD,2022-12-06 16:41:51,15.08827833,0.0002162,53.2173,21.7224,38.0769,322.0375,-0.00017275,-3.036e-05,0.0,0 STARLINK-4277,1 53009U 22076Z   22340.69572936 -.00003036  00000-0 -17275-3 0  9991,2 53009  53.2173  21.7224 0002162  38.0769 322.0375 15.08827833 23486,6917.918000000002,95.438,541.278,538.2869999999998,0.0
53009.0,STARLINK-4277,PAYLOAD,2022-12-07 19:43:24,15.08837388,0.0002041,53.2181,16.667,38.8786,321.2353,-4.0963e-05,-9.4e-06,0.0,0 STARLINK-4277,1 53009U 22076Z   22341.82181309 -.00000940  00000-0 -40963-4 0  9999,2 53009  53.2181  16.6670 0002041  38.8786 321.2353 15.08837388 23658,6917.888000000001,95.438,541.165,538.341,0.0
53009.0,STARLINK-4277,PAYLOAD,2022-12-07 21:18:47,15.088370199999998,0.0002058,53.2182,16.3697,39.3732,320.7409,-5.4326e-05,-1.153e-05,0.0,0 STARLINK-4277,1 53009U 22076Z   22341.88805388 -.00001153  00000-0 -54326-4 0  9990,2 53009  53.2182  16.3697 0002058  39.3732 320.7409 15.08837020 24133,6917.889,95.438,541.178,538.331,0.0
53009.0,STARLINK-4277,PAYLOAD,2022-12-08 02:04:53,15.0888782,0.000425,53.2181,15.4773,22.0932,338.0243,0.00039669,6.039e-05,0.0,0 STARLINK-4277,1 53009U 22076Z   22342.08673271  .00006039  00000-0  39669-3 0  9995,2 53009  53.2181  15.4773 0004250  22.0932 338.0243 15.08887820 24168,6917.734,95.435,542.539,536.659,0.0
53009.0,STARLINK-4277,PAYLOAD,2022-12-08 11:37:14,15.08856024,0.0002139,53.218,13.6931,40.4223,319.6928,0.0001623,2.297e-05,0.0,0 STARLINK-4277,1 53009U 22076Z   22342.48419662  .00002297  00000-0  16230-3 0  9992,2 53009  53.2180  13.6931 0002139  40.4223 319.6928 15.08856024 23755,6917.831,95.437,541.1759999999998,538.217,0.0
